H-2A R/B                
1 38341U 12025E   25310.74747108  .00006343  00000+0  58836-3 0  9996
2 38341  98.4539 263.2240 0045496 356.9115   3.1815 14.94051357729854
SHIJIAN-16 (SJ-16)      
1 39358U 13057A   25311.32948884  .00003590  00000+0  35773-3 0  9996
2 39358  74.9745  56.6436 0016206  46.5452 313.7081 14.91794900653255
SL-4 R/B                
1 39679U 14021B   25311.02750584  .00017504  00000+0  42897-3 0  9994
2 39679  51.6067 213.9864 0104595  17.6470 342.8103 15.35310344637403
ALOS-2                  
1 39766U 14029A   25311.30339132  .00003450  00000+0  46853-3 0  9993
2 39766  97.9237  46.6536 0001222 101.8723 258.2626 14.79484774618774
YAOGAN-29               
1 41038U 15069A   25311.32587218  .00000731  00000+0  97072-4 0  9994
2 41038  98.0257 334.3773 0002433  57.3454 302.7993 14.82821665537741
ASTRO-H (HITOMI)        
1 41337U 16012A   25310.77698615  .00005187  00000+0  31390-3 0  9997
2 41337  30.9999  69.1512 0009875 176.2582 183.8131 15.09020193533649
HXMT (HUIYAN)           
1 42758U 17034A   25311.34363382  .00008923  00000+0  46611-3 0  9997
2 42758  43.0154 335.9717 0033008 184.1404 175.9174 15.15659182463961
CZ-2C R/B               
1 43521U 18054D   25310.68282849  .00099545  00000+0  90350-3 0  9992
2 43521  35.1364  63.9558 0024511 153.9960 206.2007 15.66315840409381
SAOCOM 1A               
1 43641U 18076A   25311.29640690  .00000744  00000+0  10004-3 0  9990
2 43641  97.8869 136.2319 0001343  91.2774 268.8593 14.82151893383235
H-2A R/B                
1 43682U 18084L   25311.06986189  .00018220  00000+0  52151-3 0  9992
2 43682  98.8798 137.8064 0029295  87.3653 273.0939 15.35598231386925
SAOCOM 1B               
1 46265U 20059A   25311.32769383  .00000579  00000+0  79217-4 0  9992
2 46265  97.8858 135.3651 0001465  88.5934 271.5447 14.82159234280624
CSS (TIANHE)            
1 48274U 21035A   25311.04013910  .00032955  00000+0  38997-3 0  9998
2 48274  41.4666 233.4859 0005699 336.2635  23.7940 15.60556280258452
